{
  "type": "FeatureCollection",
  "features": [
    {
      "type": "Feature",
      "properties": {
        "norad_id": 57400,
        "name": "TIANMU-1 08",
        "group": "weather",
        "lat": -81.22948750132069,
        "lon": 167.08739024459354,
        "alt_km": 493.4189970075058,
        "timestamp": "2025-12-19T14:48:35.886968+00:00",
        "meta_object_name": "TIANMU-1 08",
        "meta_object_id": "2023-101B",
        "meta_epoch": "2025-12-19T07:22:02.144928",
        "meta_mean_motion": 15.28143647,
        "meta_eccentricity": 0.00073144,
        "meta_inclination": 97.2859,
        "meta_ra_of_asc_node": 42.8092,
        "meta_arg_of_pericenter": 65.5601,
        "meta_mean_anomaly": 294.6402,
        "meta_ephemeris_type": 0,
        "meta_classification_type": "U",
        "meta_norad_cat_id": 57400,
        "meta_element_set_no": 999,
        "meta_rev_at_epoch": 13415,
        "meta_bstar": 0.00019865477,
        "meta_mean_motion_dot": 5.381e-05,
        "meta_mean_motion_ddot": 0,
        "tle_line1": "1 57400U 23101B   25353.30696927  .00005381  00000+0  19865-3 0  9991",
        "tle_line2": "2 57400  97.2859  42.8092 0007314  65.5601 294.6402 15.28143647134153"
      },
      "geometry": {
        "type": "Point",
        "coordinates": [
          167.08739024459354,
          -81.22948750132069
        ]
      }
    },
    {
      "type": "Feature",
      "properties": {
        "norad_id": 57401,
        "name": "TIANMU-1 09",
        "group": "weather",
        "lat": -21.46678718671361,
        "lon": 45.50451465653236,
        "alt_km": 486.39626230498925,
        "timestamp": "2025-12-19T14:48:35.886978+00:00",
        "meta_object_name": "TIANMU-1 09",
        "meta_object_id": "2023-101C",
        "meta_epoch": "2025-12-19T07:02:48.876000",
        "meta_mean_motion": 15.28176152,
        "meta_eccentricity": 0.00065777,
        "meta_inclination": 97.2816,
        "meta_ra_of_asc_node": 42.3062,
        "meta_arg_of_pericenter": 66.2092,
        "meta_mean_anomaly": 293.9837,
        "meta_ephemeris_type": 0,
        "meta_classification_type": "U",
        "meta_norad_cat_id": 57401,
        "meta_element_set_no": 999,
        "meta_rev_at_epoch": 13415,
        "meta_bstar": 0.0002089968,
        "meta_mean_motion_dot": 5.67e-05,
        "meta_mean_motion_ddot": 0,
        "tle_line1": "1 57401U 23101C   25353.29362125  .00005670  00000+0  20900-3 0  9993",
        "tle_line2": "2 57401  97.2816  42.3062 0006577  66.2092 293.9837 15.28176152134152"
      },
      "geometry": {
        "type": "Point",
        "coordinates": [
          45.50451465653236,
          -21.46678718671361
        ]
      }
    },
    {
      "type": "Feature",
      "properties": {
        "norad_id": 57402,
        "name": "TIANMU-1 10",
        "group": "weather",
        "lat": 29.279185535747192,
        "lon": -132.4047896495337,
        "alt_km": 479.65416458917935,
        "timestamp": "2025-12-19T14:48:35.886988+00:00",
        "meta_object_name": "TIANMU-1 10",
        "meta_object_id": "2023-101D",
        "meta_epoch": "2025-12-19T06:17:50.423424",
        "meta_mean_motion": 15.28167407,
        "meta_eccentricity": 0.0008289,
        "meta_inclination": 97.2896,
        "meta_ra_of_asc_node": 43.1323,
        "meta_arg_of_pericenter": 64.6365,
        "meta_mean_anomaly": 295.5732,
        "meta_ephemeris_type": 0,
        "meta_classification_type": "U",
        "meta_norad_cat_id": 57402,
        "meta_element_set_no": 999,
        "meta_rev_at_epoch": 13414,
        "meta_bstar": 0.00020259452,
        "meta_mean_motion_dot": 5.494e-05,
        "meta_mean_motion_ddot": 0,
        "tle_line1": "1 57402U 23101D   25353.26238916  .00005494  00000+0  20259-3 0  9992",
        "tle_line2": "2 57402  97.2896  43.1323 0008289  64.6365 295.5732 15.28167407134141"
      },
      "geometry": {
        "type": "Point",
        "coordinates": [
          -132.4047896495337,
          29.279185535747192
        ]
      }
    },
    {
      "type": "Feature",
      "properties": {
        "norad_id": 57490,
        "name": "FENGYUN 3F",
        "group": "weather",
        "lat": -72.58486155137467,
        "lon": -147.4483792544339,
        "alt_km": 833.4098171872192,
        "timestamp": "2025-12-19T14:48:35.886999+00:00",
        "meta_object_name": "FENGYUN 3F",
        "meta_object_id": "2023-111A",
        "meta_epoch": "2025-12-19T06:50:54.837024",
        "meta_mean_motion": 14.1989519,
        "meta_eccentricity": 7.344e-05,
        "meta_inclination": 98.7076,
        "meta_ra_of_asc_node": 61.4729,
        "meta_arg_of_pericenter": 112.2291,
        "meta_mean_anomaly": 247.8963,
        "meta_ephemeris_type": 0,
        "meta_classification_type": "U",
        "meta_norad_cat_id": 57490,
        "meta_element_set_no": 999,
        "meta_rev_at_epoch": 12333,
        "meta_bstar": 5.0318414e-05,
        "meta_mean_motion_dot": 6.3e-07,
        "meta_mean_motion_ddot": 0,
        "tle_line1": "1 57490U 23111A   25353.28535691  .00000063  00000+0  50318-4 0  9999",
        "tle_line2": "2 57490  98.7076  61.4729 0000734 112.2291 247.8963 14.19895190123333"
      },
      "geometry": {
        "type": "Point",
        "coordinates": [
          -147.4483792544339,
          -72.58486155137467
        ]
      }
    },
    {
      "type": "Feature",
      "properties": {
        "norad_id": 58584,
        "name": "ARKTIKA-M 2",
        "group": "weather",
        "lat": 59.65397043650995,
        "lon": -65.52186295306369,
        "alt_km": 34617.51923113459,
        "timestamp": "2025-12-19T14:48:35.887011+00:00",
        "meta_object_name": "ARKTIKA-M 2",
        "meta_object_id": "2023-198A",
        "meta_epoch": "2025-12-18T19:26:38.867712",
        "meta_mean_motion": 2.00602974,
        "meta_eccentricity": 0.68653183,
        "meta_inclination": 63.225,
        "meta_ra_of_asc_node": 174.2298,
        "meta_arg_of_pericenter": 268.0801,
        "meta_mean_anomaly": 18.8403,
        "meta_ephemeris_type": 0,
        "meta_classification_type": "U",
        "meta_norad_cat_id": 58584,
        "meta_element_set_no": 999,
        "meta_rev_at_epoch": 1470,
        "meta_bstar": 0,
        "meta_mean_motion_dot": 2e-06,
        "meta_mean_motion_ddot": 0,
        "tle_line1": "1 58584U 23198A   25352.81017208  .00000200  00000+0  00000+0 0  9997",
        "tle_line2": "2 58584  63.2250 174.2298 6865318 268.0801  18.8403  2.00602974 14701"
      },
      "geometry": {
        "type": "Point",
        "coordinates": [
          -65.52186295306369,
          59.65397043650995
        ]
      }
    },
    {
      "type": "Feature",
      "properties": {
        "norad_id": 58645,
        "name": "TIANMU-1 11",
        "group": "weather",
        "lat": -62.34811058331412,
        "lon": 178.83788575992435,
        "alt_km": 494.8772133945631,
        "timestamp": "2025-12-19T14:48:35.887022+00:00",
        "meta_object_name": "TIANMU-1 11",
        "meta_object_id": "2023-205A",
        "meta_epoch": "2025-12-19T07:26:43.135008",
        "meta_mean_motion": 15.24675764,
        "meta_eccentricity": 0.00075895,
        "meta_inclination": 97.3597,
        "meta_ra_of_asc_node": 12.8183,
        "meta_arg_of_pericenter": 282.6587,
        "meta_mean_anomaly": 77.3802,
        "meta_ephemeris_type": 0,
        "meta_classification_type": "U",
        "meta_norad_cat_id": 58645,
        "meta_element_set_no": 999,
        "meta_rev_at_epoch": 11009,
        "meta_bstar": 0.00018570454,
        "meta_mean_motion_dot": 4.521e-05,
        "meta_mean_motion_ddot": 0,
        "tle_line1": "1 58645U 23205A   25353.31022147  .00004521  00000+0  18570-3 0  9993",
        "tle_line2": "2 58645  97.3597  12.8183 0007589 282.6587  77.3802 15.24675764110095"
      },
      "geometry": {
        "type": "Point",
        "coordinates": [
          178.83788575992435,
          -62.34811058331412
        ]
      }
    },
    {
      "type": "Feature",
      "properties": {
        "norad_id": 58646,
        "name": "TIANMU-1 12",
        "group": "weather",
        "lat": 82.19573768211855,
        "lon": -96.53660424451859,
        "alt_km": 488.51335917426604,
        "timestamp": "2025-12-19T14:48:35.887032+00:00",
        "meta_object_name": "TIANMU-1 12",
        "meta_object_id": "2023-205B",
        "meta_epoch": "2025-12-19T08:06:14.741568",
        "meta_mean_motion": 15.24560843,
        "meta_eccentricity": 0.00057709,
        "meta_inclination": 97.3584,
        "meta_ra_of_asc_node": 12.6485,
        "meta_arg_of_pericenter": 261.1988,
        "meta_mean_anomaly": 98.8597,
        "meta_ephemeris_type": 0,
        "meta_classification_type": "U",
        "meta_norad_cat_id": 58646,
        "meta_element_set_no": 999,
        "meta_rev_at_epoch": 11008,
        "meta_bstar": 0.00020321736,
        "meta_mean_motion_dot": 4.936e-05,
        "meta_mean_motion_ddot": 0,
        "tle_line1": "1 58646U 23205B   25353.33767062  .00004936  00000+0  20322-3 0  9996",
        "tle_line2": "2 58646  97.3584  12.6485 0005770 261.1988  98.8597 15.24560843110081"
      },
      "geometry": {
        "type": "Point",
        "coordinates": [
          -96.53660424451859,
          82.19573768211855
        ]
      }
    }
  ]
}